LUCH-5A                 
1 37951U 11074B   26061.63875796 -.00000061  00000+0  00000+0 0  9990
2 37951   8.4827  75.3733 0004065 242.1610 239.9010  1.00275091 51987
NIGCOMSAT 1R            
1 38014U 11077A   26061.73921464  .00000128  00000+0  00000+0 0  9992
2 38014   0.0187 151.4944 0002472 171.6454 145.9939  1.00274884 51892
WGS F4 (USA 233)        
1 38070U 12003A   26061.53429909 -.00000231  00000+0  00000+0 0  9995
2 38070   0.0092 132.6935 0000822 140.8594 167.4632  1.00269465 43079
SES-4                   
1 38087U 12007A   26061.36985276 -.00000186  00000+0  00000+0 0  9991
2 38087   0.0330  62.3198 0002206 290.0932 278.8803  1.00270118 51156
BEIDOU-2 G5             
1 38091U 12008A   26061.74242132  .00000041  00000+0  00000+0 0  9995
2 38091   3.3080  70.3182 0014141 249.6978 166.5325  1.00275702 51305
INTELSAT 22 (IS-22)     
1 38098U 12011A   26061.84072336 -.00000075  00000+0  00000+0 0  9992
2 38098   0.0238 231.2347 0001544 132.5811 171.5542  1.00273272  6128
COSMOS 2479             
1 38101U 12012A   26061.73349461  .00000080  00000+0  00000+0 0  9997
2 38101   8.6055  57.3962 0007033 242.4251 138.5421  1.00338949 51023
SL-12 R/B(2)            
1 38104U 12012D   26061.69761443  .00000100  00000+0  00000+0 0  9996
2 38104   8.5935  57.6064 0012667 296.4918 250.5433  1.00322861 50995
APSTAR-7                
1 38107U 12013A   26061.17545854 -.00000119  00000+0  00000+0 0  9990
2 38107   0.0286 114.4113 0003318 239.7867 305.4205  1.00271092 50735
YAHSAT 1B               
1 38245U 12016A   26061.82267102  .00000110  00000+0  00000+0 0  9995
2 38245   0.0789  92.4452 0003282 252.2459 159.6435  1.00271844 44545
AEHF-2 (USA 235)        
1 38254U 12019A   26061.72751457 -.00000148  00000+0  00000+0 0  9990
2 38254   6.4031  58.2613 0003165 274.7992  72.8262  1.00273524  5914
JCSAT-13                
1 38331U 12023A   26061.84488887 -.00000373  00000+0  00000+0 0  9998
2 38331   0.0413 274.4980 0002073 110.6039 203.6630  1.00271473 50475
VINASAT-2               
1 38332U 12023B   26061.84488887 -.00000345  00000+0  00000+0 0  9998
2 38332   0.0432 306.7562 0002864  51.2568 238.5900  1.00270428 45590
NIMIQ 6                 
1 38342U 12026A   26061.57009259 -.00000191  00000+0  00000+0 0  9993
2 38342   0.0595 278.9549 0002650  56.0369 299.4770  1.00271052 49343
ZHONGXING-2A            
1 38352U 12028A   26061.75022135 -.00000309  00000+0  00000+0 0  9995
2 38352   1.1788  85.3772 0001308 224.2044 219.2612  1.00273259 50232
INTELSAT 19 (IS-19)     
1 38356U 12030A   26061.82267098  .00000000  00000+0  00000+0 0  9996
2 38356   0.0251 152.0507 0003142 204.2128 266.5144  1.00269981 49382
ECHOSTAR 17             
1 38551U 12035A   26061.56688590 -.00000092  00000+0  00000+0 0  9995
2 38551   0.0188 128.5431 0001914 213.5644 275.1965  1.00271704 49993
