[{"OBJECT_NAME":"LUCH-5A","OBJECT_ID":"2011-074B","EPOCH":"2026-03-02T15:19:48.687744","MEAN_MOTION":1.00275091,"ECCENTRICITY":0.0004065,"INCLINATION":8.4827,"RA_OF_ASC_NODE":75.3733,"ARG_OF_PERICENTER":242.161,"MEAN_ANOMALY":239.901,"EPHEMERIS_TYPE":0,"CLASSIFICATION_TYPE":"U","NORAD_CAT_ID":37951,"ELEMENT_SET_NO":999,"REV_AT_EPOCH":5198,"BSTAR":0,"MEAN_MOTION_DOT":-6.1e-7,"MEAN_MOTION_DDOT":0},{"OBJECT_NAME":"NIGCOMSAT 1R","OBJECT_ID":"2011-077A","EPOCH":"2026-03-02T17:44:28.144896","MEAN_MOTION":1.00274884,"ECCENTRICITY":0.0002472,"INCLINATION":0.0187,"RA_OF_ASC_NODE":151.4944,"ARG_OF_PERICENTER":171.6454,"MEAN_ANOMALY":145.9939,"EPHEMERIS_TYPE":0,"CLASSIFICATION_TYPE":"U","NORAD_CAT_ID":38014,"ELEMENT_SET_NO":999,"REV_AT_EPOCH":5189,"BSTAR":0,"MEAN_MOTION_DOT":1.28e-6,"MEAN_MOTION_DDOT":0},{"OBJECT_NAME":"WGS F4 (USA 233)","OBJECT_ID":"2012-003A","EPOCH":"2026-03-02T12:49:23.441376","MEAN_MOTION":1.00269465,"ECCENTRICITY":8.22e-5,"INCLINATION":0.0092,"RA_OF_ASC_NODE":132.6935,"ARG_OF_PERICENTER":140.8594,"MEAN_ANOMALY":167.4632,"EPHEMERIS_TYPE":0,"CLASSIFICATION_TYPE":"U","NORAD_CAT_ID":38070,"ELEMENT_SET_NO":999,"REV_AT_EPOCH":4307,"BSTAR":0,"MEAN_MOTION_DOT":-2.31e-6,"MEAN_MOTION_DDOT":0},{"OBJECT_NAME":"SES-4","OBJECT_ID":"2012-007A","EPOCH":"2026-03-02T08:52:35.278464","MEAN_MOTION":1.00270118,"ECCENTRICITY":0.00022063,"INCLINATION":0.033,"RA_OF_ASC_NODE":62.3198,"ARG_OF_PERICENTER":290.0932,"MEAN_ANOMALY":278.8803,"EPHEMERIS_TYPE":0,"CLASSIFICATION_TYPE":"U","NORAD_CAT_ID":38087,"ELEMENT_SET_NO":999,"REV_AT_EPOCH":5115,"BSTAR":0,"MEAN_MOTION_DOT":-1.86e-6,"MEAN_MOTION_DDOT":0},{"OBJECT_NAME":"BEIDOU-2 G5","OBJECT_ID":"2012-008A","EPOCH":"2026-03-02T17:49:05.202048","MEAN_MOTION":1.00275702,"ECCENTRICITY":0.0014141,"INCLINATION":3.308,"RA_OF_ASC_NODE":70.3182,"ARG_OF_PERICENTER":249.6978,"MEAN_ANOMALY":166.5325,"EPHEMERIS_TYPE":0,"CLASSIFICATION_TYPE":"U","NORAD_CAT_ID":38091,"ELEMENT_SET_NO":999,"REV_AT_EPOCH":5130,"BSTAR":0,"MEAN_MOTION_DOT":4.1e-7,"MEAN_MOTION_DDOT":0},{"OBJECT_NAME":"INTELSAT 22 (IS-22)","OBJECT_ID":"2012-011A","EPOCH":"2026-03-02T20:10:38.498304","MEAN_MOTION":1.00273272,"ECCENTRICITY":0.0001544,"INCLINATION":0.0238,"RA_OF_ASC_NODE":231.2347,"ARG_OF_PERICENTER":132.5811,"MEAN_ANOMALY":171.5542,"EPHEMERIS_TYPE":0,"CLASSIFICATION_TYPE":"U","NORAD_CAT_ID":38098,"ELEMENT_SET_NO":999,"REV_AT_EPOCH":612,"BSTAR":0,"MEAN_MOTION_DOT":-7.5e-7,"MEAN_MOTION_DDOT":0},{"OBJECT_NAME":"COSMOS 2479","OBJECT_ID":"2012-012A","EPOCH":"2026-03-02T17:36:13.934304","MEAN_MOTION":1.00338949,"ECCENTRICITY":0.0007033,"INCLINATION":8.6055,"RA_OF_ASC_NODE":57.3962,"ARG_OF_PERICENTER":242.4251,"MEAN_ANOMALY":138.5421,"EPHEMERIS_TYPE":0,"CLASSIFICATION_TYPE":"U","NORAD_CAT_ID":38101,"ELEMENT_SET_NO":999,"REV_AT_EPOCH":5102,"BSTAR":0,"MEAN_MOTION_DOT":8.0e-7,"MEAN_MOTION_DDOT":0},{"OBJECT_NAME":"SL-12 R/B(2)","OBJECT_ID":"2012-012D","EPOCH":"2026-03-02T16:44:33.886752","MEAN_MOTION":1.00322861,"ECCENTRICITY":0.0012667,"INCLINATION":8.5935,"RA_OF_ASC_NODE":57.6064,"ARG_OF_PERICENTER":296.4918,"MEAN_ANOMALY":250.5433,"EPHEMERIS_TYPE":0,"CLASSIFICATION_TYPE":"U","NORAD_CAT_ID":38104,"ELEMENT_SET_NO":999,"REV_AT_EPOCH":5099,"BSTAR":0,"MEAN_MOTION_DOT":1.0e-6,"MEAN_MOTION_DDOT":0},{"OBJECT_NAME":"APSTAR-7","OBJECT_ID":"2012-013A","EPOCH":"2026-03-02T04:12:39.617856","MEAN_MOTION":1.00271092,"ECCENTRICITY":0.00033181,"INCLINATION":0.0286,"RA_OF_ASC_NODE":114.4113,"ARG_OF_PERICENTER":239.7867,"MEAN_ANOMALY":305.4205,"EPHEMERIS_TYPE":0,"CLASSIFICATION_TYPE":"U","NORAD_CAT_ID":38107,"ELEMENT_SET_NO":999,"REV_AT_EPOCH":5073,"BSTAR":0,"MEAN_MOTION_DOT":-1.19e-6,"MEAN_MOTION_DDOT":0},{"OBJECT_NAME":"YAHSAT 1B","OBJECT_ID":"2012-016A","EPOCH":"2026-03-02T19:44:38.776128","MEAN_MOTION":1.00271844,"ECCENTRICITY":0.0003282,"INCLINATION":0.0789,"RA_OF_ASC_NODE":92.4452,"ARG_OF_PERICENTER":252.2459,"MEAN_ANOMALY":159.6435,"EPHEMERIS_TYPE":0,"CLASSIFICATION_TYPE":"U","NORAD_CAT_ID":38245,"ELEMENT_SET_NO":999,"REV_AT_EPOCH":4454,"BSTAR":0,"MEAN_MOTION_DOT":1.1e-6,"MEAN_MOTION_DDOT":0},{"OBJECT_NAME":"AEHF-2 (USA 235)","OBJECT_ID":"2012-019A","EPOCH":"2026-03-02T17:27:37.258848","MEAN_MOTION":1.00273524,"ECCENTRICITY":0.0003165,"INCLINATION":6.4031,"RA_OF_ASC_NODE":58.2613,"ARG_OF_PERICENTER":274.7992,"MEAN_ANOMALY":72.8262,"EPHEMERIS_TYPE":0,"CLASSIFICATION_TYPE":"U","NORAD_CAT_ID":38254,"ELEMENT_SET_NO":999,"REV_AT_EPOCH":591,"BSTAR":0,"MEAN_MOTION_DOT":-1.48e-6,"MEAN_MOTION_DDOT":0},{"OBJECT_NAME":"JCSAT-13","OBJECT_ID":"2012-023A","EPOCH":"2026-03-02T20:16:38.398368","MEAN_MOTION":1.00271473,"ECCENTRICITY":0.0002073,"INCLINATION":0.0413,"RA_OF_ASC_NODE":274.498,"ARG_OF_PERICENTER":110.6039,"MEAN_ANOMALY":203.663,"EPHEMERIS_TYPE":0,"CLASSIFICATION_TYPE":"U","NORAD_CAT_ID":38331,"ELEMENT_SET_NO":999,"REV_AT_EPOCH":5047,"BSTAR":0,"MEAN_MOTION_DOT":-3.73e-6,"MEAN_MOTION_DDOT":0},{"OBJECT_NAME":"VINASAT-2","OBJECT_ID":"2012-023B","EPOCH":"2026-03-02T20:16:38.398368","MEAN_MOTION":1.00270428,"ECCENTRICITY":0.0002864,"INCLINATION":0.0432,"RA_OF_ASC_NODE":306.7562,"ARG_OF_PERICENTER":51.2568,"MEAN_ANOMALY":238.59,"EPHEMERIS_TYPE":0,"CLASSIFICATION_TYPE":"U","NORAD_CAT_ID":38332,"ELEMENT_SET_NO":999,"REV_AT_EPOCH":4559,"BSTAR":0,"MEAN_MOTION_DOT":-3.45e-6,"MEAN_MOTION_DDOT":0},{"OBJECT_NAME":"NIMIQ 6","OBJECT_ID":"2012-026A","EPOCH":"2026-03-02T13:40:55.999776","MEAN_MOTION":1.00271052,"ECCENTRICITY":0.000265,"INCLINATION":0.0595,"RA_OF_ASC_NODE":278.9549,"ARG_OF_PERICENTER":56.0369,"MEAN_ANOMALY":299.477,"EPHEMERIS_TYPE":0,"CLASSIFICATION_TYPE":"U","NORAD_CAT_ID":38342,"ELEMENT_SET_NO":999,"REV_AT_EPOCH":4934,"BSTAR":0,"MEAN_MOTION_DOT":-1.91e-6,"MEAN_MOTION_DDOT":0},{"OBJECT_NAME":"ZHONGXING-2A","OBJECT_ID":"2012-028A","EPOCH":"2026-03-02T18:00:19.124640","MEAN_MOTION":1.00273259,"ECCENTRICITY":0.0001308,"INCLINATION":1.1788,"RA_OF_ASC_NODE":85.3772,"ARG_OF_PERICENTER":224.2044,"MEAN_ANOMALY":219.2612,"EPHEMERIS_TYPE":0,"CLASSIFICATION_TYPE":"U","NORAD_CAT_ID":38352,"ELEMENT_SET_NO":999,"REV_AT_EPOCH":5023,"BSTAR":0,"MEAN_MOTION_DOT":-3.09e-6,"MEAN_MOTION_DDOT":0},{"OBJECT_NAME":"INTELSAT 19 (IS-19)","OBJECT_ID":"2012-030A","EPOCH":"2026-03-02T19:44:38.772672","MEAN_MOTION":1.00269981,"ECCENTRICITY":0.0003142,"INCLINATION":0.0251,"RA_OF_ASC_NODE":152.0507,"ARG_OF_PERICENTER":204.2128,"MEAN_ANOMALY":266.5144,"EPHEMERIS_TYPE":0,"CLASSIFICATION_TYPE":"U","NORAD_CAT_ID":38356,"ELEMENT_SET_NO":999,"REV_AT_EPOCH":4938,"BSTAR":0,"MEAN_MOTION_DOT":0,"MEAN_MOTION_DDOT":0},{"OBJECT_NAME":"ECHOSTAR 17","OBJECT_ID":"2012-035A","EPOCH":"2026-03-02T13:36:18.941760","MEAN_MOTION":1.00271704,"ECCENTRICITY":0.0001914,"INCLINATION":0.0188,"RA_OF_ASC_NODE":128.5431,"ARG_OF_PERICENTER":213.5644,"MEAN_ANOMALY":275.1965,"EPHEMERIS_TYPE":0,"CLASSIFICATION_TYPE":"U","NORAD_CAT_ID":38551,"ELEMENT_SET_NO":999,"REV_AT_EPOCH":4999,"BSTAR":0,"MEAN_MOTION_DOT":-9.2e-7,"MEAN_MOTION_DDOT":0}]
